TIANMU-1 15             
1 58700U 24004A   24026.60205594  .00007235  00000+0  40274-3 0  9991
2 58700  97.4563 210.5440 0011117 178.8739 181.2520 15.13886167  3194
TIANMU-1 16             
1 58701U 24004B   24026.59724751  .00007465  00000+0  41398-3 0  9994
2 58701  97.4489 210.5292 0011131 184.4103 175.7033 15.14007551  3191
TIANMU-1 17             
1 58702U 24004C   24026.59403909  .00007805  00000+0  42661-3 0  9996
2 58702  97.4533 210.5461 0010591 187.5108 172.5967 15.14514730  3180
TIANMU-1 18             
1 58703U 24004D   24026.58858095  .00007873  00000+0  42551-3 0  9999
2 58703  97.4550 210.5575 0011178 196.8140 163.2723 15.14907857  3180
COSMOS 2574             
1 58658U 23209A   24026.09851586  .00195080  00000+0  13826-2 0  9998
2 58658  96.7543 284.4056 0004119 286.2070 216.7264 15.73370531  4688
SL-4 R/B                
1 58659U 23209B   24026.61170216  .00081310  00000+0  51187-3 0  9994
2 58659  96.7570 285.0031 0002163 207.1100 153.0055 15.76454933  4753
TIANMU-1 19             
1 58660U 23208A   24026.54114736  .00008484  00000+0  47987-3 0  9996
2 58660  97.4002 142.8306 0012061 138.6818 221.5328 15.13244988  4583
TIANMU-1 20             
1 58661U 23208B   24026.59801291  .00008136  00000+0  44860-3 0  9992
2 58661  97.3927 142.8755 0011667 149.8115 210.3791 15.14177126  4593
TIANMU-1 21             
1 58662U 23208C   24026.59531083  .00008753  00000+0  47926-3 0  9993
2 58662  97.3974 142.8976 0010693 150.2756 209.9086 15.14412983  4590
TIANMU-1 22             
1 58663U 23208D   24026.58889894  .00008139  00000+0  44197-3 0  9994
2 58663  97.3989 142.9118 0011147 158.5267 201.6435 15.14723826  4597
STARLINK-31113          
1 58668U 23211B   24026.58334491  .00012268  00000+0  47829-3 0  9994
2 58668  43.0003 124.4307 0001588 283.0974 265.5005 15.25892556  5669
STARLINK-31128          
1 58669U 23211C   24026.58334491 -.00006111  00000+0 -22395-3 0  9998
2 58669  43.0009 124.1912 0001550 269.0269  19.0784 15.25909980  5469
STARLINK-31083          
1 58670U 23211D   24026.58334491  .00010138  00000+0  39703-3 0  9993
2 58670  43.0000 124.4931 0001650 270.4171 253.3009 15.25894815  5569
STARLINK-30828          
1 58671U 23211E   24026.58334491 -.02195806  00000+0 -80858-1 0  9999
2 58671  43.0005 123.9438 0001449 276.7982 114.3861 15.30738967  5187
STARLINK-31104          
1 58672U 23211F   24026.58334491  .00019471  00000+0  75271-3 0  9994
2 58672  43.0000 124.5231 0001708 277.9256 233.3548 15.25887893  5660
STARLINK-31131          
1 58673U 23211G   24026.58334491 -.01642918  00000+0 -16280-1 0  9999
2 58673  42.9988 119.9143 0001037 295.7351 281.9945 15.68003585  5680
STARLINK-31124          
1 58674U 23211H   24026.58334491  .00008990  00000+0  35327-3 0  9998
2 58674  43.0005 124.4027 0002000 267.4543 293.5837 15.25892158  5566
STARLINK-31126          
1 58675U 23211J   24026.58334491  .00016426  00000+0  63677-3 0  9991
2 58675  43.0000 124.5474 0001280 277.4828 221.3676 15.25890502  5566
STARLINK-31066          
1 58676U 23211K   24026.58334491  .00060652  00000+0  23139-2 0  9990
2 58676  43.0003 123.4196 0001429 288.8767 310.1846 15.25845827  5669
STARLINK-31058          
1 58677U 23211L   24026.58334491 -.00059985  00000+0 -22977-2 0  9999
2 58677  43.0007 124.3723 0001361 315.4728 257.9308 15.25971292  5565
STARLINK-31125          
1 58678U 23211M   24026.58334491 -.02186996  00000+0 -79450-1 0  9992
2 58678  43.0001 123.9175 0001824 261.9526 140.0603 15.31152087  5572
STARLINK-31110          
1 58679U 23211N   24026.58334491  .00004334  00000+0  17547-3 0  9995
2 58679  43.0009 124.2823 0000727 281.1431 329.6515 15.25898482  5661
STARLINK-31112          
1 58680U 23211P   24026.58334491 -.00001116  00000+0 -32853-4 0  9992
2 58680  43.0008 124.2217 0001745 287.5805 348.1995 15.25871393  5564
STARLINK-31147          
1 58681U 23211Q   24026.58334491  .00003487  00000+0  14314-3 0  9995
2 58681  43.0009 124.2526 0001265 295.9379 327.2999 15.25896732  5662
STARLINK-31144          
1 58682U 23211R   24026.58334491 -.02196636  00000+0 -78782-1 0  9996
2 58682  43.0002 123.8908 0001593 280.0038 132.6992 15.31577743  5662
STARLINK-31095          
1 58683U 23211S   24026.58334491  .00058730  00000+0  22399-2 0  9999
2 58683  43.0008 124.1630 0002098 263.5988  36.9239 15.25868132  5675
STARLINK-31107          
1 58684U 23211T   24026.58334491 -.01347147  00000+0 -54938-1 0  9999
2 58684  43.0005 124.0435 0001283 286.3937  63.3516 15.26887819  5561
STARLINK-31121          
1 58685U 23211U   24026.58334491 -.02191342  00000+0 -84716-1 0  9992
2 58685  43.0005 123.9605 0001809 277.7753 105.8103 15.29170786  5579
STARLINK-31137          
1 58686U 23211V   24026.58334491 -.02206679  00000+0 -77665-1 0  9998
2 58686  43.0003 123.8671 0001406 282.2063 140.1499 15.32192068  5669
STARLINK-31109          
1 58687U 23211W   24026.28909667  .00117357  00000+0  12788-2 0  9995
2 58687  43.0002 124.3503 0002704 187.9998 172.0824 15.62284962  4280
STARLINK-31139          
1 58688U 23211X   24026.58334491 -.02104599  00000+0 -84472-1 0  9992
2 58688  43.0005 124.0148 0001336 276.2473  85.0804 15.27814615  5665
STARLINK-31106          
1 58689U 23211Y   24026.58334491  .00058582  00000+0  22360-2 0  9998
2 58689  43.0008 124.1026 0002216 276.1720  49.2731 15.25843271  5565
HULIANWANG JISHU SHIYAN*
1 58691U 23212A   24026.57976947  .00000053  00000+0  16833-3 0  9998
2 58691  50.0023 319.7654 0007877  33.8304 326.3094 13.86995711  3826
HULIANWANG JISHU SHIYAN*
1 58692U 23212B   24026.57409657  .00000034  00000+0  15200-3 0  9994
2 58692  49.9991 319.7300 0004871  20.6818 339.4275 13.86967979  3833
HULIANWANG JISHU SHIYAN*
1 58693U 23212C   24026.57677958  .00000038  00000+0  15556-3 0  9994
2 58693  50.0005 319.7467 0007048  16.9814 343.1318 13.86994080  3833
XPOSAT                  
1 58694U 24001A   24001.68468223  .00000628  00000+0  00000+0 0  9999
2 58694   5.9870 115.4463 0010488 359.8378  55.4280 14.74838619    62
POEM-3                  
1 58695U 24001B   24004.74596408  .00097489  00000+0  61795-3 0  9990
2 58695   9.6657  72.7054 0007217  17.8593 342.1874 15.74486494   565
OVZON-3                 
1 58698U 24003A   24025.12500000 -.00000223  00000+0  00000+0 0  9992
2 58698  22.4206 290.8747 7253048 187.2508 214.6591  1.40783148    16
FALCON 9 R/B            
1 58699U 24003B   24023.45742415  .00010159  00000+0  55389-2 0  9996
2 58699  26.6398 290.4566 7794860 188.5870 137.8373  1.66445181   337
TIANMU-1 15             
1 58700U 24004A   24026.60205594  .00007235  00000+0  40274-3 0  9991
2 58700  97.4563 210.5440 0011117 178.8739 181.2520 15.13886167  3194
TIANMU-1 16             
1 58701U 24004B   24026.59724751  .00007465  00000+0  41398-3 0  9994
2 58701  97.4489 210.5292 0011131 184.4103 175.7033 15.14007551  3191
TIANMU-1 17             
1 58702U 24004C   24026.59403909  .00007805  00000+0  42661-3 0  9996
2 58702  97.4533 210.5461 0010591 187.5108 172.5967 15.14514730  3180
TIANMU-1 18             
1 58703U 24004D   24026.58858095  .00007873  00000+0  42551-3 0  9999
2 58703  97.4550 210.5575 0011178 196.8140 163.2723 15.14907857  3180
STARLINK-11072 [DTC]    
1 58705U 24002A   24026.54192532  .00083260  00000+0  68612-3 0  9992
2 58705  53.1603 132.8528 0001174  82.3533 277.7618 15.69677978  4907
STARLINK-11075 [DTC]    
1 58706U 24002B   24026.53965683  .00068937  00000+0  56883-3 0  9998
2 58706  53.1605 132.8376 0001071  51.2635 308.8478 15.69723622  4903
STARLINK-11077 [DTC]    
1 58707U 24002C   24026.59870037  .00087807  00000+0  72123-3 0  9995
2 58707  53.1574 132.4867 0000868  97.8351 262.2765 15.69734788  4912
STARLINK-11079 [DTC]    
1 58708U 24002D   24026.59372107  .00094163  00000+0  77409-3 0  9996
2 58708  53.1581 132.4592 0001734  84.6022 275.5194 15.69684356  4916
STARLINK-11076 [DTC]    
1 58709U 24002E   24026.56904873  .00095194  00000+0  78119-3 0  9999
2 58709  53.1586 132.3057 0001452  73.5274 286.5903 15.69722574  4915
STARLINK-11078 [DTC]    
1 58710U 24002F   24026.57131367  .00068704  00000+0  56698-3 0  9997
2 58710  53.1589 132.3202 0001108  71.4505 288.6633 15.69721649  4919
STARLINK-31031          
1 58711U 24002G   24026.57519816  .00057257  00000+0  20610-2 0  9992
2 58711  53.1614 135.9513 0001240 103.8876 256.2262 15.28066086  4866
STARLINK-31029          
1 58712U 24002H   24026.60796516  .00085625  00000+0  30626-2 0  9999
2 58712  53.1583 136.1506 0001826  66.0457 294.0734 15.28081687  4860
STARLINK-30973          
1 58713U 24002J   24026.60763282  .00086172  00000+0  30798-2 0  9992
2 58713  53.1585 136.1479 0001583  71.6948 288.4224 15.28103851  4868
STARLINK-31100          
1 58714U 24002K   24026.53787308  .00086638  00000+0  30976-2 0  9995
2 58714  53.1578 136.4231 0001493  80.0350 280.0818 15.28088897  4859
STARLINK-31102          
1 58715U 24002L   24026.60295541  .00083670  00000+0  29953-2 0  9993
2 58715  53.1578 136.1183 0001575  65.8310 294.2855 15.28065154  4861
STARLINK-31098          
1 58716U 24002M   24026.59860586  .00058622  00000+0  21127-2 0  9993
2 58716  53.1579 136.0911 0001451  68.1073 292.0081 15.28015083  4869
STARLINK-31093          
1 58717U 24002N   24026.58334491 -.00164633  00000+0 -60477-2 0  9997
2 58717  53.1611 135.9573 0001082  92.8815 288.0781 15.28106961  4786
STARLINK-31097          
1 58718U 24002P   24026.59392228  .00044200  00000+0  15972-2 0  9996
2 58718  53.1586 136.0613 0001316  78.9475 281.1673 15.28055229  4865
STARLINK-31051          
1 58719U 24002Q   24026.59358415  .00086327  00000+0  30863-2 0  9999
2 58719  53.1587 136.0598 0001295  95.6477 264.4670 15.28092927  4860
